     4.02           N: GNSS NAV DATA    M: Mixed            RINEX VERSION / TYPE
BNC 2.13.4          user                20260407 020003 UTC PGM / RUN BY / DATE
Source: RTCM_3.3 products.igs-ip.net/BCEP00BKG0             COMMENT
    18                                                      LEAP SECONDS
                                                            END OF HEADER
E34 2026 04 07 02 00 00-2.463622367941e-04-2.430056156300e-12 0.000000000000e+00
     4.600000000000e+01-5.112500000000e+01 2.603322724555e-09-5.576966423266e-01
    -2.587214112282e-06 1.201744889840e-04 2.041459083557e-06 5.440610660553e+03
     1.800000000000e+05 4.284083843231e-08 2.624596991834e+00-1.862645149231e-08
     9.980807896139e-01 3.148437500000e+02 1.284834698865e+00-5.565588971978e-09
    -8.107480566251e-11 2.580000000000e+02 2.413000000000e+03 0.000000000000e+00
     3.120000000000e+00 0.000000000000e+00 1.862645149231e-09 0.000000000000e+00
     9.999000000000e+08                                                         
> EPH S37 SBAS
S37 2026 04 07 02 12 16 9.313225746155e-10 0.000000000000e+00 9.999000000000e+08
    -2.538079064000e+04-6.262500000000e-04 0.000000000000e+00 4.700000000000e+01
     3.366088216000e+04-9.400000000000e-04 0.000000000000e+00 8.192000000000e+03
    -1.838760000000e+01-3.604000000000e-03 0.000000000000e+00 1.500000000000e+01
> EPH E02 FNAV
E02 2026 04 07 02 00 00 3.078178269789e-05 2.771116669464e-12 0.000000000000e+00
     4.600000000000e+01 7.612500000000e+01 2.905835325419e-09 2.071002743383e+00
     3.466382622719e-06 3.842036239803e-04 1.003220677376e-05 5.440619688034e+03
     1.800000000000e+05 3.539025783539e-08 5.305283678932e-01 4.656612873077e-08
     9.623892223683e-01 1.254687500000e+02 7.505369001773e-01-5.369866533638e-09
    -3.246563803842e-10 2.580000000000e+02 2.413000000000e+03 0.000000000000e+00
     3.120000000000e+00 0.000000000000e+00-4.190951585770e-09 0.000000000000e+00
     9.999000000000e+08                                                         
> EPH E08 FNAV
E08 2026 04 07 02 00 00-1.227310858667e-04-7.034373084025e-12 0.000000000000e+00
     4.600000000000e+01-1.387500000000e+01 3.232634652209e-09-1.956390373798e+00
    -5.532056093216e-07 4.027028335258e-04 7.271766662598e-06 5.440611267090e+03
     1.800000000000e+05 1.676380634308e-08-1.571506652520e+00-5.587935447693e-09
     9.730683385564e-01 1.902187500000e+02-1.769801236582e-01-5.481299746707e-09
     4.428755904031e-10 2.580000000000e+02 2.413000000000e+03 0.000000000000e+00
     3.120000000000e+00 0.000000000000e+00-7.683411240578e-09 0.000000000000e+00
     9.999000000000e+08                                                         
> EPH E09 FNAV
E09 2026 04 07 02 00 00-2.203054027632e-04-1.661248916207e-11 0.000000000000e+00
     4.600000000000e+01-2.962500000000e+01 3.166917629117e-09 4.726415187307e-01
    -1.335516571999e-06 4.618811653927e-04 6.863847374916e-06 5.440610172272e+03
     1.800000000000e+05 1.862645149231e-08-1.571454160093e+00-7.264316082001e-08
     9.730959569868e-01 1.972187500000e+02-2.468851725356e-01-5.434154925793e-09
     3.371569010811e-10 2.580000000000e+02 2.413000000000e+03 0.000000000000e+00
     3.120000000000e+00 0.000000000000e+00-1.164153218269e-09 0.000000000000e+00
     9.999000000000e+08                                                         
> EPH S22 SBAS
S22 2026 04 07 02 12 32 0.000000000000e+00 0.000000000000e+00 9.999000000000e+08
    -3.389392800000e+04 0.000000000000e+00 0.000000000000e+00 4.700000000000e+01
     2.508018800000e+04 0.000000000000e+00 0.000000000000e+00 8.192000000000e+03
     0.000000000000e+00 0.000000000000e+00 0.000000000000e+00 1.500000000000e+01
> EPH S29 SBAS
S29 2026 04 07 02 12 48 2.188608050346e-08 0.000000000000e+00 9.999000000000e+08
    -3.765251200000e+02-3.475000000000e-04 0.000000000000e+00 4.700000000000e+01
     4.216018576000e+04-6.181250000000e-04 0.000000000000e+00 8.192000000000e+03
     2.369080000000e+01 1.040000000000e-03 0.000000000000e+00 1.500000000000e+01
> EPH S36 SBAS
S36 2026 04 07 02 13 04 0.000000000000e+00 0.000000000000e+00 9.999000000000e+08
     4.200368800000e+04 0.000000000000e+00 0.000000000000e+00 4.700000000000e+01
     3.674846960000e+03 0.000000000000e+00 0.000000000000e+00 8.192000000000e+03
     0.000000000000e+00 0.000000000000e+00 0.000000000000e+00 5.000000000000e+00
> EPH S23 SBAS
S23 2026 04 07 02 13 04 0.000000000000e+00 0.000000000000e+00 9.999000000000e+08
     3.866796400000e+04 0.000000000000e+00 0.000000000000e+00 4.700000000000e+01
     1.681330800000e+04 0.000000000000e+00 0.000000000000e+00 8.192000000000e+03
     0.000000000000e+00 0.000000000000e+00 0.000000000000e+00 1.220000000000e+02
> EPH S37 SBAS
S37 2026 04 07 02 13 20 9.313225746155e-10 0.000000000000e+00 9.999000000000e+08
    -2.538083088000e+04-6.312500000000e-04 0.000000000000e+00 4.700000000000e+01
     3.366082200000e+04-9.400000000000e-04 0.000000000000e+00 8.192000000000e+03
    -1.861800000000e+01-3.600000000000e-03 0.000000000000e+00 1.500000000000e+01
> EPH S29 SBAS
S29 2026 04 07 02 13 52 2.188608050346e-08 0.000000000000e+00 9.999000000000e+08
    -3.765476000000e+02-3.537500000000e-04 0.000000000000e+00 4.700000000000e+01
     4.216014624000e+04-6.175000000000e-04 0.000000000000e+00 8.192000000000e+03
     2.375720000000e+01 1.032000000000e-03 0.000000000000e+00 1.500000000000e+01
> EPH S22 SBAS
S22 2026 04 07 02 13 52 0.000000000000e+00 0.000000000000e+00 9.999000000000e+08
    -3.389392800000e+04 0.000000000000e+00 0.000000000000e+00 4.700000000000e+01
     2.508018800000e+04 0.000000000000e+00 0.000000000000e+00 8.192000000000e+03
     0.000000000000e+00 0.000000000000e+00 0.000000000000e+00 1.500000000000e+01
> EPH S21 SBAS
S21 2026 04 07 02 14 08 0.000000000000e+00 0.000000000000e+00 9.999000000000e+08
     4.200468400000e+04 0.000000000000e+00 0.000000000000e+00 4.700000000000e+01
    -3.674932960000e+03 0.000000000000e+00 0.000000000000e+00 8.192000000000e+03
     0.000000000000e+00 0.000000000000e+00 0.000000000000e+00 2.440000000000e+02
> EPH S37 SBAS
S37 2026 04 07 02 14 08 9.313225746155e-10 0.000000000000e+00 9.999000000000e+08
    -2.538086128000e+04-6.343750000000e-04 0.000000000000e+00 4.700000000000e+01
     3.366077688000e+04-9.406250000000e-04 0.000000000000e+00 8.192000000000e+03
    -1.879080000000e+01-3.596000000000e-03 0.000000000000e+00 1.500000000000e+01
> EPH S30 SBAS
S30 2026 04 07 02 14 24-6.789341568947e-07 0.000000000000e+00 9.999000000000e+08
    -3.230897672000e+04 1.180625000000e-03-5.000000000000e-08 4.700000000000e+01
     2.709573704000e+04-3.668750000000e-04-6.250000000000e-08 8.192000000000e+03
     3.525380000000e+02 1.818400000000e-02-8.750000000000e-07 6.200000000000e+01
> EPH S43 SBAS
S43 2026 04 07 02 14 24-7.865019142628e-07 0.000000000000e+00 9.999000000000e+08
    -1.474734728000e+04-2.989375000000e-03-1.375000000000e-07 4.700000000000e+01
     3.945772040000e+04-2.318125000000e-03 1.500000000000e-07 8.192000000000e+03
    -1.657089200000e+03 4.092000000000e-03 4.375000000000e-06 6.100000000000e+01
> EPH S44 SBAS
S44 2026 04 07 02 14 24 3.385357558727e-07 0.000000000000e+00 9.999000000000e+08
     7.307353120000e+03-3.701875000000e-03-7.500000000000e-08 4.700000000000e+01
     4.147849192000e+04-1.079375000000e-03 2.500000000000e-07 8.192000000000e+03
    -1.971674800000e+03-1.851200000000e-02 5.187500000000e-06 6.000000000000e+01
> EPH S27 SBAS
S27 2026 04 07 02 15 28 1.760199666023e-07 8.185452315956e-11 9.999000000000e+08
     2.415838048000e+04-2.388750000000e-03-2.375000000000e-07 0.000000000000e+00
     3.452944216000e+04-3.868750000000e-04 8.750000000000e-08 4.096000000000e+03
    -5.123180000000e+02-9.670800000000e-02 2.812500000000e-06 1.400000000000e+01
> EPH S28 SBAS
S28 2026 04 07 02 15 28 3.860332071781e-07 1.909938873723e-11 9.999000000000e+08
     5.146615440000e+03-1.163750000000e-03-2.500000000000e-08 0.000000000000e+00
     4.184156960000e+04-6.937500000000e-05 5.000000000000e-08 4.096000000000e+03
     1.903600000000e+01-2.960000000000e-04-1.250000000000e-07 1.400000000000e+01
> EPH S29 SBAS
S29 2026 04 07 02 14 56 2.188608050346e-08 0.000000000000e+00 9.999000000000e+08
    -3.765704000000e+02-3.593750000000e-04 0.000000000000e+00 4.700000000000e+01
     4.216010672000e+04-6.175000000000e-04 0.000000000000e+00 8.192000000000e+03
     2.382320000000e+01 1.024000000000e-03 0.000000000000e+00 1.500000000000e+01
> EPH S32 SBAS
S32 2026 04 07 02 15 28 2.374872565269e-08 3.183231456205e-11 9.999000000000e+08
    -2.537643120000e+03 2.562500000000e-05-1.250000000000e-07 0.000000000000e+00
     4.208867000000e+04-8.356250000000e-04 0.000000000000e+00 4.096000000000e+03
     1.327760000000e+01-2.000000000000e-04-6.250000000000e-08 1.400000000000e+01
> EPH S35 SBAS
S35 2026 04 07 02 15 28-3.678724169731e-08-1.000444171950e-11 9.999000000000e+08
    -2.417299376000e+04-2.950000000000e-04-1.000000000000e-07 0.000000000000e+00
    -3.454571560000e+04-7.375000000000e-04 6.250000000000e-08 2.000000000000e+00
    -1.125840000000e+01-1.280000000000e-04 6.250000000000e-08 1.830000000000e+02
> EPH S31 SBAS
S31 2026 04 07 02 15 28 3.213062882423e-08-1.000444171950e-11 9.999000000000e+08
    -1.914185640000e+04-7.625000000000e-05 0.000000000000e+00 0.000000000000e+00
    -3.756965976000e+04-2.437500000000e-05 3.750000000000e-08 2.000000000000e+00
     1.539200000000e+00-1.760000000000e-04 0.000000000000e+00 1.370000000000e+02
> EPH S33 SBAS
S33 2026 04 07 02 15 28 4.889443516731e-08-2.728484105319e-12 9.999000000000e+08
    -2.662018784000e+04-5.062500000000e-05-3.750000000000e-08 0.000000000000e+00
    -3.269751248000e+04-3.156250000000e-04 2.500000000000e-08 2.000000000000e+00
    -1.615600000000e+00-1.252000000000e-03 0.000000000000e+00 1.110000000000e+02
> EPH S23 SBAS
